PANDORA
1 67395U 80229J   26061.97278935  .00000000  00000-0  37770-3 0    06
2 67395  97.8005  62.3054 0006593 111.2703 170.1563 14.87841972    03
